{
  "type": "FeatureCollection",
  "features": [
    {
      "type": "Feature",
      "properties": {
        "norad_id": 29869,
        "name": "FENGYUN 1C DEB",
        "group": "fengyun-1c-debris",
        "lat": -68.2633808293936,
        "lon": 70.32189105564603,
        "alt_km": 817.2825976546947,
        "timestamp": "2025-12-09T04:51:47.765154+00:00",
        "meta_object_name": "FENGYUN 1C DEB",
        "meta_object_id": "1999-025FP",
        "meta_epoch": "2025-12-08T19:38:12.098112",
        "meta_mean_motion": 14.36869078,
        "meta_eccentricity": 0.0087846,
        "meta_inclination": 98.8726,
        "meta_ra_of_asc_node": 272.9924,
        "meta_arg_of_pericenter": 22.5451,
        "meta_mean_anomaly": 40.7727,
        "meta_ephemeris_type": 0,
        "meta_classification_type": "U",
        "meta_norad_cat_id": 29869,
        "meta_element_set_no": 999,
        "meta_rev_at_epoch": 98764,
        "meta_bstar": 0.00084535,
        "meta_mean_motion_dot": 2.565e-05,
        "meta_mean_motion_ddot": 0,
        "tle_line1": "1 29869U 99025FP  25342.81819558  .00002565  00000+0  84535-3 0  9995",
        "tle_line2": "2 29869  98.8726 272.9924 0087846  22.5451  40.7727 14.36869078987646"
      },
      "geometry": {
        "type": "Point",
        "coordinates": [
          70.32189105564603,
          -68.2633808293936
        ]
      }
    },
    {
      "type": "Feature",
      "properties": {
        "norad_id": 29870,
        "name": "FENGYUN 1C DEB",
        "group": "fengyun-1c-debris",
        "lat": 20.776938174585673,
        "lon": -49.01187829112974,
        "alt_km": 880.824921876274,
        "timestamp": "2025-12-09T04:51:47.765164+00:00",
        "meta_object_name": "FENGYUN 1C DEB",
        "meta_object_id": "1999-025FQ",
        "meta_epoch": "2025-12-08T20:38:13.178400",
        "meta_mean_motion": 14.28978825,
        "meta_eccentricity": 0.0119621,
        "meta_inclination": 98.4595,
        "meta_ra_of_asc_node": 313.8924,
        "meta_arg_of_pericenter": 203.8729,
        "meta_mean_anomaly": 214.9408,
        "meta_ephemeris_type": 0,
        "meta_classification_type": "U",
        "meta_norad_cat_id": 29870,
        "meta_element_set_no": 999,
        "meta_rev_at_epoch": 98538,
        "meta_bstar": 0.0001048,
        "meta_mean_motion_dot": 2.43e-06,
        "meta_mean_motion_ddot": 0,
        "tle_line1": "1 29870U 99025FQ  25342.85987475  .00000243  00000+0  10480-3 0  9994",
        "tle_line2": "2 29870  98.4595 313.8924 0119621 203.8729 214.9408 14.28978825985384"
      },
      "geometry": {
        "type": "Point",
        "coordinates": [
          -49.01187829112974,
          20.776938174585673
        ]
      }
    },
    {
      "type": "Feature",
      "properties": {
        "norad_id": 29871,
        "name": "FENGYUN 1C DEB",
        "group": "fengyun-1c-debris",
        "lat": 21.30085517661716,
        "lon": 119.67947141188021,
        "alt_km": 717.8939178326946,
        "timestamp": "2025-12-09T04:51:47.765174+00:00",
        "meta_object_name": "FENGYUN 1C DEB",
        "meta_object_id": "1999-025FR",
        "meta_epoch": "2025-12-08T20:03:42.621408",
        "meta_mean_motion": 14.42604402,
        "meta_eccentricity": 0.0058498,
        "meta_inclination": 98.9728,
        "meta_ra_of_asc_node": 295.7619,
        "meta_arg_of_pericenter": 118.896,
        "meta_mean_anomaly": 295.5231,
        "meta_ephemeris_type": 0,
        "meta_classification_type": "U",
        "meta_norad_cat_id": 29871,
        "meta_element_set_no": 999,
        "meta_rev_at_epoch": 98645,
        "meta_bstar": 0.0015825,
        "meta_mean_motion_dot": 5.32e-05,
        "meta_mean_motion_ddot": 0,
        "tle_line1": "1 29871U 99025FR  25342.83590997  .00005320  00000+0  15825-2 0  9990",
        "tle_line2": "2 29871  98.9728 295.7619 0058498 118.8960 295.5231 14.42604402986454"
      },
      "geometry": {
        "type": "Point",
        "coordinates": [
          119.67947141188021,
          21.30085517661716
        ]
      }
    },
    {
      "type": "Feature",
      "properties": {
        "norad_id": 29872,
        "name": "FENGYUN 1C DEB",
        "group": "fengyun-1c-debris",
        "lat": 22.961820019783868,
        "lon": -4.302953524966365,
        "alt_km": 672.2442487848621,
        "timestamp": "2025-12-09T04:51:47.765184+00:00",
        "meta_object_name": "FENGYUN 1C DEB",
        "meta_object_id": "1999-025FS",
        "meta_epoch": "2025-12-08T12:04:14.349504",
        "meta_mean_motion": 14.38920846,
        "meta_eccentricity": 0.02355604,
        "meta_inclination": 98.3455,
        "meta_ra_of_asc_node": 358.5814,
        "meta_arg_of_pericenter": 326.3699,
        "meta_mean_anomaly": 32.2725,
        "meta_ephemeris_type": 0,
        "meta_classification_type": "U",
        "meta_norad_cat_id": 29872,
        "meta_element_set_no": 999,
        "meta_rev_at_epoch": 98531,
        "meta_bstar": 0.0010052988,
        "meta_mean_motion_dot": 4.235e-05,
        "meta_mean_motion_ddot": 0,
        "tle_line1": "1 29872U 99025FS  25342.50294386  .00004235  00000+0  10053-2 0  9990",
        "tle_line2": "2 29872  98.3455 358.5814 0235560 326.3699  32.2725 14.38920846985319"
      },
      "geometry": {
        "type": "Point",
        "coordinates": [
          -4.302953524966365,
          22.961820019783868
        ]
      }
    },
    {
      "type": "Feature",
      "properties": {
        "norad_id": 29873,
        "name": "FENGYUN 1C DEB",
        "group": "fengyun-1c-debris",
        "lat": -75.38002896057495,
        "lon": -16.46432834252798,
        "alt_km": 863.9401078078772,
        "timestamp": "2025-12-09T04:51:47.765194+00:00",
        "meta_object_name": "FENGYUN 1C DEB",
        "meta_object_id": "1999-025FT",
        "meta_epoch": "2025-12-08T20:50:41.314272",
        "meta_mean_motion": 13.98145,
        "meta_eccentricity": 0.0092497,
        "meta_inclination": 99.4424,
        "meta_ra_of_asc_node": 202.8318,
        "meta_arg_of_pericenter": 209.5769,
        "meta_mean_anomaly": 167.6428,
        "meta_ephemeris_type": 0,
        "meta_classification_type": "U",
        "meta_norad_cat_id": 29873,
        "meta_element_set_no": 999,
        "meta_rev_at_epoch": 96261,
        "meta_bstar": 0.00028035,
        "meta_mean_motion_dot": 3.66e-06,
        "meta_mean_motion_ddot": 0,
        "tle_line1": "1 29873U 99025FT  25342.86853373  .00000366  00000+0  28035-3 0  9998",
        "tle_line2": "2 29873  99.4424 202.8318 0092497 209.5769 167.6428 13.98145000962615"
      },
      "geometry": {
        "type": "Point",
        "coordinates": [
          -16.46432834252798,
          -75.38002896057495
        ]
      }
    },
    {
      "type": "Feature",
      "properties": {
        "norad_id": 29874,
        "name": "FENGYUN 1C DEB",
        "group": "fengyun-1c-debris",
        "lat": 81.52082156050164,
        "lon": 158.84573458134216,
        "alt_km": 784.8269551964722,
        "timestamp": "2025-12-09T04:51:47.765205+00:00",
        "meta_object_name": "FENGYUN 1C DEB",
        "meta_object_id": "1999-025FU",
        "meta_epoch": "2025-12-08T04:00:48.987360",
        "meta_mean_motion": 14.28698987,
        "meta_eccentricity": 0.01053838,
        "meta_inclination": 98.3795,
        "meta_ra_of_asc_node": 239.2327,
        "meta_arg_of_pericenter": 4.0106,
        "meta_mean_anomaly": 161.1326,
        "meta_ephemeris_type": 0,
        "meta_classification_type": "U",
        "meta_norad_cat_id": 29874,
        "meta_element_set_no": 999,
        "meta_rev_at_epoch": 96782,
        "meta_bstar": 0.003799192,
        "meta_mean_motion_dot": 0.00010113,
        "meta_mean_motion_ddot": 0,
        "tle_line1": "1 29874U 99025FU  25342.16723365  .00010113  00000+0  37992-2 0  9991",
        "tle_line2": "2 29874  98.3795 239.2327 0105383   4.0106 161.1326 14.28698987967826"
      },
      "geometry": {
        "type": "Point",
        "coordinates": [
          158.84573458134216,
          81.52082156050164
        ]
      }
    },
    {
      "type": "Feature",
      "properties": {
        "norad_id": 29875,
        "name": "FENGYUN 1C DEB",
        "group": "fengyun-1c-debris",
        "lat": -18.60506634405649,
        "lon": 37.629447659727774,
        "alt_km": 815.717493067752,
        "timestamp": "2025-12-09T04:51:47.765215+00:00",
        "meta_object_name": "FENGYUN 1C DEB",
        "meta_object_id": "1999-025FV",
        "meta_epoch": "2025-12-08T17:42:40.196736",
        "meta_mean_motion": 14.24877711,
        "meta_eccentricity": 0.0083257,
        "meta_inclination": 98.4057,
        "meta_ra_of_asc_node": 34.3313,
        "meta_arg_of_pericenter": 74.868,
        "meta_mean_anomaly": 45.1899,
        "meta_ephemeris_type": 0,
        "meta_classification_type": "U",
        "meta_norad_cat_id": 29875,
        "meta_element_set_no": 999,
        "meta_rev_at_epoch": 98265,
        "meta_bstar": 5.9084e-05,
        "meta_mean_motion_dot": 1.02e-06,
        "meta_mean_motion_ddot": 0,
        "tle_line1": "1 29875U 99025FV  25342.73796524  .00000102  00000+0  59084-4 0  9997",
        "tle_line2": "2 29875  98.4057  34.3313 0083257  74.8680  45.1899 14.24877711982659"
      },
      "geometry": {
        "type": "Point",
        "coordinates": [
          37.629447659727774,
          -18.60506634405649
        ]
      }
    }
  ]
}